NORAD_CAT_ID,OBJECT_NAME,OBJECT_TYPE,EPOCH,MEAN_MOTION,ECCENTRICITY,INCLINATION,RA_OF_ASC_NODE,ARG_OF_PERICENTER,MEAN_ANOMALY,BSTAR,MEAN_MOTION_DOT,MEAN_MOTION_DDOT,TLE_LINE0,TLE_LINE1,TLE_LINE2,SEMIMAJOR_AXIS,PERIOD,APOGEE,PERIGEE,DECAYED
53700.0,STARLINK-4725,PAYLOAD,2023-11-10 14:16:15,15.08831222,0.0001164,53.2172,99.972,81.5521,278.5603,7.3065e-05,8.75e-06,0.0,0 STARLINK-4725,1 53700U 22107A   23314.59462818  .00000875  00000-0  73065-4 0  9998,2 53700  53.2172  99.9720 0001164  81.5521 278.5603 15.08831222 66529,6917.907,95.438,540.577,538.967,0.0
53700.0,STARLINK-4725,PAYLOAD,2023-11-10 17:27:01,15.08835079,0.0001202,53.2172,99.3764,84.7774,275.3356,0.00010248,1.343e-05,0.0,0 STARLINK-4725,1 53700U 22107A   23314.72710548  .00001343  00000-0  10248-3 0  9993,2 53700  53.2172  99.3764 0001202  84.7774 275.3356 15.08835079 66545,6917.895,95.438,540.592,538.929,0.0
53700.0,STARLINK-4725,PAYLOAD,2023-11-11 14:07:02,15.08840321,0.0001298,53.217,95.5109,83.4198,276.6941,7.1569e-05,8.51e-06,0.0,0 STARLINK-4725,1 53700U 22107A   23315.58822492  .00000851  00000-0  71569-4 0  9997,2 53700  53.2170  95.5109 0001298  83.4198 276.6941 15.08840321 66679,6917.879,95.438,540.642,538.846,0.0
53700.0,STARLINK-4725,PAYLOAD,2023-11-11 18:53:11,15.08846141,0.0001297,53.217,94.618,93.6904,266.4236,0.00010744,1.423e-05,0.0,0 STARLINK-4725,1 53700U 22107A   23315.78693962  .00001423  00000-0  10744-3 0  9990,2 53700  53.2170  94.6180 0001297  93.6904 266.4236 15.08846141 65955,6917.862,95.437,540.624,538.829,0.0
53700.0,STARLINK-4725,PAYLOAD,2023-11-12 09:11:40,15.08840748,0.0001399,53.2167,91.9406,99.4845,260.6305,5.1822e-05,5.37e-06,0.0,0 STARLINK-4725,1 53700U 22107A   23316.38310417  .00000537  00000-0  51822-4 0  9996,2 53700  53.2167  91.9406 0001399  99.4845 260.6305 15.08840748 66044,6917.878,95.438,540.711,538.775,0.0
53700.0,STARLINK-4725,PAYLOAD,2023-11-12 13:57:49,15.08841305,0.0001484,53.2162,91.049,89.8007,270.3155,0.00010748,1.423e-05,0.0,0 STARLINK-4725,1 53700U 22107A   23316.58182209  .00001423  00000-0  10748-3 0  9990,2 53700  53.2162  91.0490 0001484  89.8007 270.3155 15.08841305 66828,6917.876,95.437,540.768,538.715,0.0
53700.0,STARLINK-4725,PAYLOAD,2023-11-12 15:33:12,15.08846318,0.0001427,53.2174,90.7514,94.3974,265.7182,7.5239e-05,9.1e-06,0.0,0 STARLINK-4725,1 53700U 22107A   23316.64805940  .00000910  00000-0  75239-4 0  9998,2 53700  53.2174  90.7514 0001427  94.3974 265.7182 15.08846318 66833,6917.861,95.437,540.713,538.739,0.0
53700.0,STARLINK-4725,PAYLOAD,2023-11-13 12:13:13,15.08850295,0.0001298,53.2182,86.8881,78.1428,281.9709,-3.8243e-05,-8.97e-06,0.0,0 STARLINK-4725,1 53700U 22107A   23317.50917900 -.00000897  00000-0 -38243-4 0  9994,2 53700  53.2182  86.8881 0001298  78.1428 281.9709 15.08850295 66211,6917.849,95.437,540.612,538.816,0.0
53700.0,STARLINK-4725,PAYLOAD,2023-11-14 12:04:00,15.0882741,0.0001279,53.2192,82.4287,90.9214,269.1924,0.00010937,1.453e-05,0.0,0 STARLINK-4725,1 53700U 22107A   23318.50278778  .00001453  00000-0  10937-3 0  9994,2 53700  53.2192  82.4287 0001279  90.9214 269.1924 15.08827410 66364,6917.919,95.438,540.669,538.899,0.0
53700.0,STARLINK-4725,PAYLOAD,2023-11-14 15:14:46,15.08837283,0.0001384,53.2166,81.8323,93.9865,266.1285,-2.4348e-05,-6.75e-06,0.0,0 STARLINK-4725,1 53700U 22107A   23318.63526514 -.00000675  00000-0 -24348-4 0  9991,2 53700  53.2166  81.8323 0001384  93.9865 266.1285 15.08837283 67133,6917.889,95.438,540.711,538.796,0.0
53700.0,STARLINK-4725,PAYLOAD,2023-11-15 15:05:33,15.08838497,0.0001311,53.2172,77.3719,95.8606,264.2536,9.0116e-06,-1.44e-06,0.0,0 STARLINK-4725,1 53700U 22107A   23319.62886541 -.00000144  00000-0  90116-5 0  9997,2 53700  53.2172  77.3719 0001311  95.8606 264.2536 15.08838497 67285,6917.885,95.438,540.657,538.843,0.0
53700.0,STARLINK-4725,PAYLOAD,2023-11-16 06:59:25,15.08831704,0.0001233,53.2174,74.3982,86.8468,273.2665,3.0033e-05,1.9e-06,0.0,0 STARLINK-4725,1 53700U 22107A   23320.29127216  .00000190  00000-0  30033-4 0  9990,2 53700  53.2174  74.3982 0001233  86.8468 273.2665 15.08831704 66630,6917.906,95.438,540.624,538.918,0.0
53700.0,STARLINK-4725,PAYLOAD,2023-11-17 11:36:22,15.08837364,0.0001235,53.2175,69.0462,85.7032,274.4102,3.742e-05,3.08e-06,0.0,0 STARLINK-4725,1 53700U 22107A   23321.48359240  .00000308  00000-0  37420-4 0  9994,2 53700  53.2175  69.0462 0001235  85.7032 274.4102 15.08837364 66819,6917.888,95.438,540.608,538.899,0.0
53700.0,STARLINK-4725,PAYLOAD,2023-11-17 13:11:45,15.08837557,0.0001239,53.2177,68.7488,84.7781,275.3352,3.7594e-05,3.1e-06,0.0,0 STARLINK-4725,1 53700U 22107A   23321.54983238  .00000310  00000-0  37594-4 0  9996,2 53700  53.2177  68.7488 0001239  84.7781 275.3352 15.08837557 67574,6917.888,95.438,540.61,538.896,0.0
53700.0,STARLINK-4725,PAYLOAD,2023-11-17 16:22:31,15.08839061,0.0001248,53.2178,68.1539,81.8843,278.2291,4.7794e-05,4.73e-06,0.0,0 STARLINK-4725,1 53700U 22107A   23321.68231140  .00000473  00000-0  47794-4 0  9992,2 53700  53.2178  68.1539 0001248  81.8843 278.2291 15.08839061 67591,6917.883,95.438,540.612,538.885,0.0
53700.0,STARLINK-4725,PAYLOAD,2023-11-18 13:02:32,15.08839792,0.000131,53.2178,64.2889,82.2158,277.8983,5.039e-05,5.14e-06,0.0,0 STARLINK-4725,1 53700U 22107A   23322.54343209  .00000514  00000-0  50390-4 0  9990,2 53700  53.2178  64.2889 0001310  82.2158 277.8983 15.08839792 66975,6917.881,95.438,540.652,538.84,0.0
53700.0,STARLINK-4725,PAYLOAD,2023-11-19 12:53:19,15.08841558,0.0001391,53.2181,59.8282,87.2528,272.8624,3.514e-05,2.71e-06,0.0,0 STARLINK-4725,1 53700U 22107A   23323.53703079  .00000271  00000-0  35140-4 0  9991,2 53700  53.2181  59.8282 0001391  87.2528 272.8624 15.08841558 67871,6917.876,95.437,540.703,538.778,0.0
53700.0,STARLINK-4725,PAYLOAD,2023-11-20 00:01:01,15.08841991,0.0001399,53.2183,57.7469,86.7561,273.3592,3.8496e-05,3.25e-06,0.0,0 STARLINK-4725,1 53700U 22107A   23324.00070939  .00000325  00000-0  38496-4 0  9993,2 53700  53.2183  57.7469 0001399  86.7561 273.3592 15.08841991 67192,6917.874,95.437,540.707,538.771,0.0
53700.0,STARLINK-4725,PAYLOAD,2023-11-20 12:44:06,15.08845343,0.0001451,53.2188,55.3676,91.9363,268.1795,3.1414e-05,2.12e-06,0.0,0 STARLINK-4725,1 53700U 22107A   23324.53062712  .00000212  00000-0  31414-4 0  9999,2 53700  53.2188  55.3676 0001451  91.9363 268.1795 15.08845343 68023,6917.864,95.437,540.733,538.725,0.0
53700.0,STARLINK-4725,PAYLOAD,2023-11-20 14:19:29,15.08846461,0.0001459,53.2188,55.0702,91.9492,268.1667,3.9236e-05,3.37e-06,0.0,0 STARLINK-4725,1 53700U 22107A   23324.59686598  .00000337  00000-0  39236-4 0  9997,2 53700  53.2188  55.0702 0001459  91.9492 268.1667 15.08846461 68032,6917.861,95.437,540.735,538.716,0.0
53700.0,STARLINK-4725,PAYLOAD,2023-11-21 10:59:30,15.08829302,0.0001463,53.219,51.2042,96.0614,264.0545,0.00013279,1.825e-05,0.0,0 STARLINK-4725,1 53700U 22107A   23325.45799298  .00001825  00000-0  13279-3 0  9996,2 53700  53.2190  51.2042 0001463  96.0614 264.0545 15.08829302 67413,6917.913,95.438,540.79,538.766,0.0
53700.0,STARLINK-4725,PAYLOAD,2023-11-21 12:34:53,15.0884165,0.0001524,53.2191,50.9067,96.4599,263.6567,3.0202e-06,-2.4e-06,0.0,0 STARLINK-4725,1 53700U 22107A   23325.52422879 -.00000240  00000-0  30202-5 0  9990,2 53700  53.2191  50.9067 0001524  96.4599 263.6567 15.08841650 68174,6917.875,95.437,540.795,538.686,0.0
53700.0,STARLINK-4725,PAYLOAD,2023-11-21 15:45:39,15.08837088,0.0001611,53.2196,50.3099,105.7509,254.3661,0.00011877,1.603e-05,0.0,0 STARLINK-4725,1 53700U 22107A   23325.65670761  .00001603  00000-0  11877-3 0  9997,2 53700  53.2196  50.3099 0001611 105.7509 254.3661 15.08837088 68194,6917.889,95.438,540.869,538.64,0.0
53700.0,STARLINK-4725,PAYLOAD,2023-11-22 10:50:16,15.08847244,0.0001602,53.2195,46.7413,105.3689,254.748,4.1913e-05,3.79e-06,0.0,0 STARLINK-4725,1 53700U 22107A   23326.45158122  .00000379  00000-0  41913-4 0  9992,2 53700  53.2195  46.7413 0001602 105.3689 254.7480 15.08847244 67565,6917.858,95.437,540.831,538.615,0.0
53700.0,STARLINK-4725,PAYLOAD,2023-11-22 12:25:39,15.08850951,0.000158,53.2196,46.4444,99.7013,260.4157,5.4409e-05,5.78e-06,0.0,0 STARLINK-4725,1 53700U 22107A   23326.51781826  .00000578  00000-0  54409-4 0  9997,2 53700  53.2196  46.4444 0001580  99.7013 260.4157 15.08850951 68328,6917.847,95.437,540.805,538.619,0.0
53700.0,STARLINK-4725,PAYLOAD,2023-11-23 10:41:04,15.08838194,0.0001467,53.2197,42.2809,97.1569,262.959,-1.2693e-05,-4.9e-06,0.0,0 STARLINK-4725,1 53700U 22107A   23327.44518907 -.00000490  00000-0 -12693-4 0  9992,2 53700  53.2197  42.2809 0001467  97.1569 262.9590 15.08838194 67715,6917.886,95.438,540.766,538.736,0.0
53700.0,STARLINK-4725,PAYLOAD,2023-11-23 12:16:27,15.08840561,0.0001502,53.2197,41.9835,102.9791,257.1369,-3.8497e-06,-3.49e-06,0.0,0 STARLINK-4725,1 53700U 22107A   23327.51142703 -.00000349  00000-0 -38497-5 0  9991,2 53700  53.2197  41.9835 0001502 102.9791 257.1369 15.08840561 68477,6917.879,95.438,540.783,538.705,0.0
53700.0,STARLINK-4725,PAYLOAD,2023-11-24 10:31:52,15.08834914,0.0001391,53.2195,37.8263,95.2786,264.8365,-0.00016856,-2.969e-05,0.0,0 STARLINK-4725,1 53700U 22107A   23328.43880160 -.00002969  00000-0 -16856-3 0  9992,2 53700  53.2195  37.8263 0001391  95.2786 264.8365 15.08834914 67866,6917.896,95.438,540.723,538.799,0.0
53700.0,STARLINK-4725,PAYLOAD,2023-11-24 13:42:38,15.08833016,0.0001486,53.2197,37.2294,93.1199,266.9963,-0.00010795,-2.005e-05,0.0,0 STARLINK-4725,1 53700U 22107A   23328.57128178 -.00002005  00000-0 -10795-3 0  9998,2 53700  53.2197  37.2294 0001486  93.1199 266.9963 15.08833016 68631,6917.902,95.438,540.795,538.739,0.0
53700.0,STARLINK-4725,PAYLOAD,2023-11-25 13:33:24,15.08852582,0.0001594,53.2196,32.7708,90.6745,269.443,0.00017967,2.574e-05,0.0,0 STARLINK-4725,1 53700U 22107A   23329.56486761  .00002574  00000-0  17967-3 0  9990,2 53700  53.2196  32.7708 0001594  90.6745 269.4430 15.08852582 68781,6917.842,95.437,540.81,538.604,0.0
